BEIDOU-3 M14 (C33)      
1 43623U 18072B   24190.08490012 -.00000045  00000+0  00000+0 0  9994
2 43623  56.0100  86.1757 0005122 344.2942  15.7338  1.86231630 39441
BEIDOU-3 M16 (C35)      
1 43647U 18078A   24188.09961627 -.00000108  00000+0  00000+0 0  9999
2 43647  54.7011 324.7782 0006637  23.8280 336.1905  1.86232297 38910
BEIDOU-3 M15 (C34)      
1 43648U 18078B   24189.30268936 -.00000105  00000+0  00000+0 0  9995
2 43648  54.6960 324.7394 0003675  41.2629 318.7564  1.86232383 38959
BEIDOU-3 G1 (C59)       
1 43683U 18085A   24189.57772672 -.00000285  00000+0  00000+0 0  9997
2 43683   2.2413 108.8172 0003707   2.4336 162.6724  1.00266835 20944
BEIDOU-3 M17 (C36)      
1 43706U 18093A   24188.37935866  .00000054  00000+0  00000+0 0  9998
2 43706  54.2149 206.4196 0010439 280.2492  79.6791  1.86228451 38309
BEIDOU-3 M18 (C37)      
1 43707U 18093B   24188.78149725  .00000049  00000+0  00000+0 0  9999
2 43707  54.2157 206.3977 0008321 304.3995  55.5653  1.86229974 38309
BEIDOU-3 IGSO-1 (C38)   
1 44204U 19023A   24189.39944929 -.00000215  00000+0  00000+0 0  9999
2 44204  57.6722  45.0097 0022374 206.0827 296.0209  1.00295564    92
BEIDOU-2 G8 (C01)       
1 44231U 19027A   24189.79328411 -.00000251  00000+0  00000+0 0  9999
2 44231   1.5262  73.8633 0001571 195.4899  86.9885  1.00274245 18964
BEIDOU-3 IGSO-2 (C39)   
1 44337U 19035A   24189.61776022 -.00000115  00000+0  00000+0 0  9990
2 44337  55.1825 165.0890 0035316 205.3628 255.5100  1.00291282 18587
BEIDOU-3 M24 (C46)      
1 44542U 19061A   24188.31405796  .00000055  00000+0  00000+0 0  9992
2 44542  54.4424 206.7122 0007873 341.5126  18.5060  1.86229160 32551
BEIDOU-3 M23 (C45)      
1 44543U 19061B   24189.63048155  .00000043  00000+0  00000+0 0  9998
2 44543  54.4407 206.6363 0005556 319.8567 115.0988  1.86231832 32575
BEIDOU-3 IGSO-3 (C40)   
1 44709U 19073A   24175.72519622 -.00000189  00000+0  00000+0 0  9994
2 44709  56.0384 288.6583 0039278 182.0502 177.9480  1.00247548 17183
BEIDOU-3 M22 (C44)      
1 44793U 19078A   24186.01203673 -.00000112  00000+0  00000+0 0  9998
2 44793  54.5506 324.7804 0005679  33.5021 326.5187  1.86232212 31365
BEIDOU-3 M21 (C43)      
1 44794U 19078B   24188.82653087 -.00000107  00000+0  00000+0 0  9992
2 44794  54.5219 324.6585 0003430  31.5922 328.4186  1.86232752 31429
BEIDOU-3 M19 (C41)      
1 44864U 19090A   24189.31128295 -.00000048  00000+0  00000+0 0  9991
2 44864  55.9423  86.3780 0017117 285.6336 232.1355  1.86231882 31013
BEIDOU-3 M20 (C42)      
1 44865U 19090B   24187.66798755 -.00000061  00000+0  00000+0 0  9997
2 44865  55.9427  86.4661 0015268 299.7639 285.9817  1.86231734 30962
BEIDOU-3 G2 (C60)       
1 45344U 20017A   24190.13823237 -.00000145  00000+0  00000+0 0  9994
2 45344   2.3410  30.4599 0001694 134.3207 251.6069  1.00272225 16166
BEIDOU-3 G3 (C61)       
1 45807U 20040A   24189.79154255 -.00000357  00000+0  00000+0 0  9996
2 45807   0.8115  44.8791 0004437  15.1903 261.6548  1.00268167 14975
BEIDOU-3 G4             
1 56564U 23066A   24189.79632991 -.00000113  00000+0  00000+0 0  9997
2 56564   2.0718 288.2126 0005755 206.1227 238.5041  1.00273378  4296
BEIDOU-3 M25            
1 58654U 23207A   24189.44631703 -.00000049  00000+0  00000+0 0  9996
2 58654  55.1253  86.3757 0002395 316.1727  43.8479  1.86232396  3629
BEIDOU-3 M26            
1 58655U 23207B   24189.24531432 -.00000051  00000+0  00000+0 0  9996
2 58655  55.1271  86.3679 0002688 282.9372  77.0713  1.86232087  3609
